HAWK-A                  
1 43765U 18099H   26068.67628545  .00008617  00000+0  36104-3 0  9995
2 43765  97.4051 122.2425 0034260 275.5523  84.1807 15.23231043397949
STARLINK-35532          
1 66091U 25236F   26068.52066676  .00023933  00000+0  81744-3 0  9996
2 66091  53.1580 104.3062 0001198  93.3164 266.7974 15.30205397 22928
